[{"OBJECT_NAME":"KUIPER-00176","OBJECT_ID":"2025-217AC","EPOCH":"2026-03-09T22:52:35.140800","MEAN_MOTION":14.7992947,"ECCENTRICITY":6.934e-5,"INCLINATION":51.9002,"RA_OF_ASC_NODE":41.9321,"ARG_OF_PERICENTER":103.7667,"MEAN_ANOMALY":256.3372,"EPHEMERIS_TYPE":0,"CLASSIFICATION_TYPE":"U","NORAD_CAT_ID":65788,"ELEMENT_SET_NO":999,"REV_AT_EPOCH":2491,"BSTAR":0.00055994201,"MEAN_MOTION_DOT":4.05e-5,"MEAN_MOTION_DDOT":0},{"OBJECT_NAME":"YAOGAN-2 DEB","OBJECT_ID":"2007-019C","EPOCH":"2026-03-09T11:43:36.585696","MEAN_MOTION":14.36653484,"ECCENTRICITY":0.01961542,"INCLINATION":97.9194,"RA_OF_ASC_NODE":322.83,"ARG_OF_PERICENTER":319.8929,"MEAN_ANOMALY":38.7915,"EPHEMERIS_TYPE":0,"CLASSIFICATION_TYPE":"U","NORAD_CAT_ID":38263,"ELEMENT_SET_NO":999,"REV_AT_EPOCH":97367,"BSTAR":0.00086105179,"MEAN_MOTION_DOT":3.115e-5,"MEAN_MOTION_DDOT":0}]
